{"type": "FeatureCollection", "features": [ {"type": "Feature", "properties": {"norad_id": 40878, "name": "YAOGAN-27", "group": "resource", "lat": 78.56115470175308, "lon": -152.94451273404943, "alt_km": 1196.9451525594523, "timestamp": "2025-12-01T03:58:49.207712+00:00", "meta": {"OBJECT_NAME": "YAOGAN-27", "OBJECT_ID": "2015-040A", "EPOCH": "2025-11-30T22:01:26.222304", "MEAN_MOTION": 13.16059522, "ECCENTRICITY": 0.000779, "INCLINATION": 100.1002, "RA_OF_ASC_NODE": 325.0728, "ARG_OF_PERICENTER": 315.7938, "MEAN_ANOMALY": 44.2553, "EPHEMERIS_TYPE": 0, "CLASSIFICATION_TYPE": "U", "NORAD_CAT_ID": 40878, "ELEMENT_SET_NO": 999, "REV_AT_EPOCH": 49158, "BSTAR": 0.000154, "MEAN_MOTION_DOT": 1.6e-07, "MEAN_MOTION_DDOT": 0, "GROUP": "resource"}, "tle": {"line1": "1 40878U 15040A   25334.91766461  .00000016  00000+0  15400-3 0  9993", "line2": "2 40878 100.1002 325.0728 0007790 315.7938  44.2553 13.16059522491583"}}, "geometry": {"type": "Point", "coordinates": [-152.94451273404943, 78.56115470175308]}}, {"type": "Feature", "properties": {"norad_id": 40894, "name": "GAOFEN-9 01", "group": "resource", "lat": -57.7265185749932, "lon": -177.6771732234334, "alt_km": 648.810391580977, "timestamp": "2025-12-01T03:58:49.207723+00:00", "meta": {"OBJECT_NAME": "GAOFEN-9 01", "OBJECT_ID": "2015-047A", "EPOCH": "2025-11-30T20:25:45.638688", "MEAN_MOTION": 14.82372905, "ECCENTRICITY": 0.0029015, "INCLINATION": 97.6559, "RA_OF_ASC_NODE": 14.3197, "ARG_OF_PERICENTER": 71.705, "MEAN_ANOMALY": 288.7317, "EPHEMERIS_TYPE": 0, "CLASSIFICATION_TYPE": "U", "NORAD_CAT_ID": 40894, "ELEMENT_SET_NO": 999, "REV_AT_EPOCH": 55080, "BSTAR": 0.00015988, "MEAN_MOTION_DOT": 1.238e-05, "MEAN_MOTION_DDOT": 0, "GROUP": "resource"}, "tle": {"line1": "1 40894U 15047A   25334.85122267  .00001238  00000+0  15988-3 0  9999", "line2": "2 40894  97.6559  14.3197 0029015  71.7050 288.7317 14.82372905550805"}}, "geometry": {"type": "Point", "coordinates": [-177.6771732234334, -57.7265185749932]}}, {"type": "Feature", "properties": {"norad_id": 41026, "name": "YAOGAN-28", "group": "resource", "lat": 82.6540471198067, "lon": 15.821327907163141, "alt_km": 483.95992059496075, "timestamp": "2025-12-01T03:58:49.207737+00:00", "meta": {"OBJECT_NAME": "YAOGAN-28", "OBJECT_ID": "2015-064A", "EPOCH": "2025-11-30T19:42:12.411072", "MEAN_MOTION": 15.24031785, "ECCENTRICITY": 0.0011762, "INCLINATION": 97.2793, "RA_OF_ASC_NODE": 112.9528, "ARG_OF_PERICENTER": 166.0893, "MEAN_ANOMALY": 194.0671, "EPHEMERIS_TYPE": 0, "CLASSIFICATION_TYPE": "U", "NORAD_CAT_ID": 41026, "ELEMENT_SET_NO": 999, "REV_AT_EPOCH": 56043, "BSTAR": 0.00039043, "MEAN_MOTION_DOT": 9.418e-05, "MEAN_MOTION_DDOT": 0, "GROUP": "resource"}, "tle": {"line1": "1 41026U 15064A   25334.82097698  .00009418  00000+0  39043-3 0  9998", "line2": "2 41026  97.2793 112.9528 0011762 166.0893 194.0671 15.24031785560432"}}, "geometry": {"type": "Point", "coordinates": [15.821327907163141, 82.6540471198067]}}, {"type": "Feature", "properties": {"norad_id": 41038, "name": "YAOGAN-29", "group": "resource", "lat": 71.9396554018543, "lon": -156.07112876843883, "alt_km": 613.4168622169154, "timestamp": "2025-12-01T03:58:49.207747+00:00", "meta": {"OBJECT_NAME": "YAOGAN-29", "OBJECT_ID": "2015-069A", "EPOCH": "2025-11-30T21:01:30.999936", "MEAN_MOTION": 14.82860926, "ECCENTRICITY": 9.49e-05, "INCLINATION": 98.023, "RA_OF_ASC_NODE": 358.0091, "ARG_OF_PERICENTER": 13.6187, "MEAN_ANOMALY": 346.5051, "EPHEMERIS_TYPE": 0, "CLASSIFICATION_TYPE": "U", "NORAD_CAT_ID": 41038, "ELEMENT_SET_NO": 999, "REV_AT_EPOCH": 54123, "BSTAR": 6.7853e-05, "MEAN_MOTION_DOT": 4.95e-06, "MEAN_MOTION_DDOT": 0, "GROUP": "resource"}, "tle": {"line1": "1 41038U 15069A   25334.87605324  .00000495  00000+0  67853-4 0  9999", "line2": "2 41038  98.0230 358.0091 0000949  13.6187 346.5051 14.82860926541239"}}, "geometry": {"type": "Point", "coordinates": [-156.07112876843883, 71.9396554018543]}}, {"type": "Feature", "properties": {"norad_id": 41167, "name": "KENT RIDGE 1", "group": "resource", "lat": -5.987311375514134, "lon": -86.07316299670458, "alt_km": 493.37836350043017, "timestamp": "2025-12-01T03:58:49.207758+00:00", "meta": {"OBJECT_NAME": "KENT RIDGE 1", "OBJECT_ID": "2015-077B", "EPOCH": "2025-11-30T06:03:25.503264", "MEAN_MOTION": 15.21483619, "ECCENTRICITY": 0.00087582, "INCLINATION": 14.981, "RA_OF_ASC_NODE": 303.7869, "ARG_OF_PERICENTER": 314.2019, "MEAN_ANOMALY": 45.7584, "EPHEMERIS_TYPE": 0, "CLASSIFICATION_TYPE": "U", "NORAD_CAT_ID": 41167, "ELEMENT_SET_NO": 999, "REV_AT_EPOCH": 55073, "BSTAR": 0.00021112655, "MEAN_MOTION_DOT": 5.652e-05, "MEAN_MOTION_DDOT": 0, "GROUP": "resource"}, "tle": {"line1": "1 41167U 15077B   25334.25237851  .00005652  00000+0  21113-3 0  9997", "line2": "2 41167  14.9810 303.7869 0008758 314.2019  45.7584 15.21483619550731"}}, "geometry": {"type": "Point", "coordinates": [-86.07316299670458, -5.987311375514134]}}, {"type": "Feature", "properties": {"norad_id": 41194, "name": "GAOFEN-4", "group": "resource", "lat": 0.034770123718536626, "lon": -124.3409620103453, "alt_km": 35776.89715618538, "timestamp": "2025-12-01T03:58:49.207771+00:00", "meta": {"OBJECT_NAME": "GAOFEN-4", "OBJECT_ID": "2015-083A", "EPOCH": "2025-11-30T21:07:21.929088", "MEAN_MOTION": 1.00267805, "ECCENTRICITY": 0.0003543, "INCLINATION": 0.1371, "RA_OF_ASC_NODE": 80.4522, "ARG_OF_PERICENTER": 108.7748, "MEAN_ANOMALY": 303.2916, "EPHEMERIS_TYPE": 0, "CLASSIFICATION_TYPE": "U", "NORAD_CAT_ID": 41194, "ELEMENT_SET_NO": 999, "REV_AT_EPOCH": 3654, "BSTAR": 0, "MEAN_MOTION_DOT": -3.12e-06, "MEAN_MOTION_DDOT": 0, "GROUP": "resource"}, "tle": {"line1": "1 41194U 15083A   25334.88011492 -.00000312  00000+0  00000+0 0  9991", "line2": "2 41194   0.1371  80.4522 0003543 108.7748 303.2916  1.00267805 36545"}}, "geometry": {"type": "Point", "coordinates": [-124.3409620103453, 0.034770123718536626]}}, {"type": "Feature", "properties": {"norad_id": 41240, "name": "JASON-3", "group": "resource", "lat": -47.26582487991646, "lon": 153.38779513810468, "alt_km": 1312.4043444167646, "timestamp": "2025-12-01T03:58:49.207782+00:00", "meta": {"OBJECT_NAME": "JASON-3", "OBJECT_ID": "2016-002A", "EPOCH": "2025-11-30T20:48:03.800160", "MEAN_MOTION": 12.87625762, "ECCENTRICITY": 0.0007164, "INCLINATION": 66.0393, "RA_OF_ASC_NODE": 182.7864, "ARG_OF_PERICENTER": 270.1399, "MEAN_ANOMALY": 89.8798, "EPHEMERIS_TYPE": 0, "CLASSIFICATION_TYPE": "U", "NORAD_CAT_ID": 41240, "ELEMENT_SET_NO": 999, "REV_AT_EPOCH": 46171, "BSTAR": 0.00016653, "MEAN_MOTION_DOT": -2e-07, "MEAN_MOTION_DDOT": 0, "GROUP": "resource"}, "tle": {"line1": "1 41240U 16002A   25334.86671065 -.00000020  00000+0  16653-3 0  9992", "line2": "2 41240  66.0393 182.7864 0007164 270.1399  89.8798 12.87625762461719"}}, "geometry": {"type": "Point", "coordinates": [153.38779513810468, -47.26582487991646]}}, {"type": "Feature", "properties": {"norad_id": 41335, "name": "SENTINEL-3A", "group": "resource", "lat": -19.5338039773655, "lon": 43.431923952764514, "alt_km": 807.9782335986538, "timestamp": "2025-12-01T03:58:49.207793+00:00", "meta": {"OBJECT_NAME": "SENTINEL-3A", "OBJECT_ID": "2016-011A", "EPOCH": "2025-11-30T19:39:25.907040", "MEAN_MOTION": 14.26739088, "ECCENTRICITY": 0.0001014, "INCLINATION": 98.6223, "RA_OF_ASC_NODE": 40.0045, "ARG_OF_PERICENTER": 90.6975, "MEAN_ANOMALY": 269.4321, "EPHEMERIS_TYPE": 0, "CLASSIFICATION_TYPE": "U", "NORAD_CAT_ID": 41335, "ELEMENT_SET_NO": 999, "REV_AT_EPOCH": 50977, "BSTAR": 7.8902e-05, "MEAN_MOTION_DOT": 1.47e-06, "MEAN_MOTION_DDOT": 0, "GROUP": "resource"}, "tle": {"line1": "1 41335U 16011A   25334.81904985  .00000147  00000+0  78902-4 0  9997", "line2": "2 41335  98.6223  40.0045 0001014  90.6975 269.4321 14.26739088509776"}}, "geometry": {"type": "Point", "coordinates": [43.431923952764514, -19.5338039773655]}}, {"type": "Feature", "properties": {"norad_id": 41556, "name": "ZIYUAN 3-2 (ZY 3-2)", "group": "resource", "lat": 63.13461077441386, "lon": -115.59760839587705, "alt_km": 504.56708534854624, "timestamp": "2025-12-01T03:58:49.207804+00:00", "meta": {"OBJECT_NAME": "ZIYUAN 3-2 (ZY 3-2)", "OBJECT_ID": "2016-033A", "EPOCH": "2025-11-30T21:09:27.343872", "MEAN_MOTION": 15.21236924, "ECCENTRICITY": 0.0012497, "INCLINATION": 97.406, "RA_OF_ASC_NODE": 49.244, "ARG_OF_PERICENTER": 295.3585, "MEAN_ANOMALY": 64.6356, "EPHEMERIS_TYPE": 0, "CLASSIFICATION_TYPE": "U", "NORAD_CAT_ID": 41556, "ELEMENT_SET_NO": 999, "REV_AT_EPOCH": 52783, "BSTAR": 0.00036719, "MEAN_MOTION_DOT": 8.148e-05, "MEAN_MOTION_DDOT": 0, "GROUP": "resource"}, "tle": {"line1": "1 41556U 16033A   25334.88156648  .00008148  00000+0  36719-3 0  9996", "line2": "2 41556  97.4060  49.2440 0012497 295.3585  64.6356 15.21236924527832"}}, "geometry": {"type": "Point", "coordinates": [-115.59760839587705, 63.13461077441386]}}, {"type": "Feature", "properties": {"norad_id": 41599, "name": "CARTOSAT-2C", "group": "resource", "lat": 30.960695716200327, "lon": -142.94515948516263, "alt_km": 500.82782733113436, "timestamp": "2025-12-01T03:58:49.207816+00:00", "meta": {"OBJECT_NAME": "CARTOSAT-2C", "OBJECT_ID": "2016-040A", "EPOCH": "2025-11-28T05:46:44.135040", "MEAN_MOTION": 15.19294253, "ECCENTRICITY": 0.00113305, "INCLINATION": 97.4789, "RA_OF_ASC_NODE": 29.6383, "ARG_OF_PERICENTER": 113.8935, "MEAN_ANOMALY": 246.3488, "EPHEMERIS_TYPE": 0, "CLASSIFICATION_TYPE": "U", "NORAD_CAT_ID": 41599, "ELEMENT_SET_NO": 999, "REV_AT_EPOCH": 52320, "BSTAR": 2.6585853e-05, "MEAN_MOTION_DOT": 4.93e-06, "MEAN_MOTION_DDOT": 0, "GROUP": "resource"}, "tle": {"line1": "1 41599U 16040A   25332.24078860  .00000493  00000+0  26586-4 0  9995", "line2": "2 41599  97.4789  29.6383 0011330 113.8935 246.3488 15.19294253523201"}}, "geometry": {"type": "Point", "coordinates": [-142.94515948516263, 30.960695716200327]}}]}